<?xml version="1.0" encoding="UTF-8"?>
<ndm xmlns:xsi="http://www.w3.org/2001/XMLSchema-instance" xsi:noNamespaceSchemaLocation="https://sanaregistry.org/r/ndmxml_unqualified/ndmxml-2.0.0-master-2.0.xsd">
<omm id="CCSDS_OMM_VERS" version="2.0">
<header><CREATION_DATE/><ORIGINATOR/></header><body><segment><metadata><OBJECT_NAME>ORBCOMM FM24</OBJECT_NAME><OBJECT_ID>1998-053D</OBJECT_ID><CENTER_NAME>EARTH</CENTER_NAME><REF_FRAME>TEME</REF_FRAME><TIME_SYSTEM>UTC</TIME_SYSTEM><MEAN_ELEMENT_THEORY>SGP4</MEAN_ELEMENT_THEORY></metadata><data><meanElements><EPOCH>2024-07-20T20:53:58.276032</EPOCH><MEAN_MOTION>14.35974329</MEAN_MOTION><ECCENTRICITY>.0000709</ECCENTRICITY><INCLINATION>45.0090</INCLINATION><RA_OF_ASC_NODE>37.7026</RA_OF_ASC_NODE><ARG_OF_PERICENTER>34.5301</ARG_OF_PERICENTER><MEAN_ANOMALY>325.5592</MEAN_ANOMALY></meanElements><tleParameters><EPHEMERIS_TYPE>0</EPHEMERIS_TYPE><CLASSIFICATION_TYPE>U</CLASSIFICATION_TYPE><NORAD_CAT_ID>25478</NORAD_CAT_ID><ELEMENT_SET_NO>999</ELEMENT_SET_NO><REV_AT_EPOCH>34978</REV_AT_EPOCH><BSTAR>.1061E-2</BSTAR><MEAN_MOTION_DOT>.2969E-4</MEAN_MOTION_DOT><MEAN_MOTION_DDOT>0</MEAN_MOTION_DDOT></tleParameters></data></segment></body></omm>
<omm id="CCSDS_OMM_VERS" version="2.0">
<header><CREATION_DATE/><ORIGINATOR/></header><body><segment><metadata><OBJECT_NAME>ORBCOMM FM25</OBJECT_NAME><OBJECT_ID>1998-053E</OBJECT_ID><CENTER_NAME>EARTH</CENTER_NAME><REF_FRAME>TEME</REF_FRAME><TIME_SYSTEM>UTC</TIME_SYSTEM><MEAN_ELEMENT_THEORY>SGP4</MEAN_ELEMENT_THEORY></metadata><data><meanElements><EPOCH>2024-07-20T21:47:02.513472</EPOCH><MEAN_MOTION>14.35959832</MEAN_MOTION><ECCENTRICITY>.0003257</ECCENTRICITY><INCLINATION>45.0082</INCLINATION><RA_OF_ASC_NODE>35.7778</RA_OF_ASC_NODE><ARG_OF_PERICENTER>34.9984</ARG_OF_PERICENTER><MEAN_ANOMALY>325.1078</MEAN_ANOMALY></meanElements><tleParameters><EPHEMERIS_TYPE>0</EPHEMERIS_TYPE><CLASSIFICATION_TYPE>U</CLASSIFICATION_TYPE><NORAD_CAT_ID>25479</NORAD_CAT_ID><ELEMENT_SET_NO>999</ELEMENT_SET_NO><REV_AT_EPOCH>35008</REV_AT_EPOCH><BSTAR>.1088E-2</BSTAR><MEAN_MOTION_DOT>.3047E-4</MEAN_MOTION_DOT><MEAN_MOTION_DDOT>0</MEAN_MOTION_DDOT></tleParameters></data></segment></body></omm>
<omm id="CCSDS_OMM_VERS" version="2.0">
<header><CREATION_DATE/><ORIGINATOR/></header><body><segment><metadata><OBJECT_NAME>ORBCOMM FM26</OBJECT_NAME><OBJECT_ID>1998-053F</OBJECT_ID><CENTER_NAME>EARTH</CENTER_NAME><REF_FRAME>TEME</REF_FRAME><TIME_SYSTEM>UTC</TIME_SYSTEM><MEAN_ELEMENT_THEORY>SGP4</MEAN_ELEMENT_THEORY></metadata><data><meanElements><EPOCH>2024-07-20T20:57:36.391968</EPOCH><MEAN_MOTION>14.35356837</MEAN_MOTION><ECCENTRICITY>.000542</ECCENTRICITY><INCLINATION>45.0078</INCLINATION><RA_OF_ASC_NODE>30.3716</RA_OF_ASC_NODE><ARG_OF_PERICENTER>54.1947</ARG_OF_PERICENTER><MEAN_ANOMALY>305.9404</MEAN_ANOMALY></meanElements><tleParameters><EPHEMERIS_TYPE>0</EPHEMERIS_TYPE><CLASSIFICATION_TYPE>U</CLASSIFICATION_TYPE><NORAD_CAT_ID>25480</NORAD_CAT_ID><ELEMENT_SET_NO>999</ELEMENT_SET_NO><REV_AT_EPOCH>35001</REV_AT_EPOCH><BSTAR>.87579E-3</BSTAR><MEAN_MOTION_DOT>.2394E-4</MEAN_MOTION_DOT><MEAN_MOTION_DDOT>0</MEAN_MOTION_DDOT></tleParameters></data></segment></body></omm>
<omm id="CCSDS_OMM_VERS" version="2.0">
<header><CREATION_DATE/><ORIGINATOR/></header><body><segment><metadata><OBJECT_NAME>ORBCOMM FM27</OBJECT_NAME><OBJECT_ID>1998-053G</OBJECT_ID><CENTER_NAME>EARTH</CENTER_NAME><REF_FRAME>TEME</REF_FRAME><TIME_SYSTEM>UTC</TIME_SYSTEM><MEAN_ELEMENT_THEORY>SGP4</MEAN_ELEMENT_THEORY></metadata><data><meanElements><EPOCH>2024-07-20T21:30:48.169440</EPOCH><MEAN_MOTION>14.35946838</MEAN_MOTION><ECCENTRICITY>.0000983</ECCENTRICITY><INCLINATION>45.0064</INCLINATION><RA_OF_ASC_NODE>36.0923</RA_OF_ASC_NODE><ARG_OF_PERICENTER>163.9180</ARG_OF_PERICENTER><MEAN_ANOMALY>196.1699</MEAN_ANOMALY></meanElements><tleParameters><EPHEMERIS_TYPE>0</EPHEMERIS_TYPE><CLASSIFICATION_TYPE>U</CLASSIFICATION_TYPE><NORAD_CAT_ID>25481</NORAD_CAT_ID><ELEMENT_SET_NO>999</ELEMENT_SET_NO><REV_AT_EPOCH>35001</REV_AT_EPOCH><BSTAR>.1056E-2</BSTAR><MEAN_MOTION_DOT>.2952E-4</MEAN_MOTION_DOT><MEAN_MOTION_DDOT>0</MEAN_MOTION_DDOT></tleParameters></data></segment></body></omm>
<omm id="CCSDS_OMM_VERS" version="2.0">
<header><CREATION_DATE/><ORIGINATOR/></header><body><segment><metadata><OBJECT_NAME>ORBCOMM FM28</OBJECT_NAME><OBJECT_ID>1998-053H</OBJECT_ID><CENTER_NAME>EARTH</CENTER_NAME><REF_FRAME>TEME</REF_FRAME><TIME_SYSTEM>UTC</TIME_SYSTEM><MEAN_ELEMENT_THEORY>SGP4</MEAN_ELEMENT_THEORY></metadata><data><meanElements><EPOCH>2024-07-20T19:00:48.044736</EPOCH><MEAN_MOTION>14.36361775</MEAN_MOTION><ECCENTRICITY>.0002895</ECCENTRICITY><INCLINATION>45.0069</INCLINATION><RA_OF_ASC_NODE>334.8200</RA_OF_ASC_NODE><ARG_OF_PERICENTER>101.4287</ARG_OF_PERICENTER><MEAN_ANOMALY>258.6886</MEAN_ANOMALY></meanElements><tleParameters><EPHEMERIS_TYPE>0</EPHEMERIS_TYPE><CLASSIFICATION_TYPE>U</CLASSIFICATION_TYPE><NORAD_CAT_ID>25482</NORAD_CAT_ID><ELEMENT_SET_NO>999</ELEMENT_SET_NO><REV_AT_EPOCH>35067</REV_AT_EPOCH><BSTAR>.10214E-2</BSTAR><MEAN_MOTION_DOT>.2876E-4</MEAN_MOTION_DOT><MEAN_MOTION_DDOT>0</MEAN_MOTION_DDOT></tleParameters></data></segment></body></omm>
<omm id="CCSDS_OMM_VERS" version="2.0">
<header><CREATION_DATE/><ORIGINATOR/></header><body><segment><metadata><OBJECT_NAME>ORBCOMM FM30</OBJECT_NAME><OBJECT_ID>1999-065A</OBJECT_ID><CENTER_NAME>EARTH</CENTER_NAME><REF_FRAME>TEME</REF_FRAME><TIME_SYSTEM>UTC</TIME_SYSTEM><MEAN_ELEMENT_THEORY>SGP4</MEAN_ELEMENT_THEORY></metadata><data><meanElements><EPOCH>2024-07-20T18:12:51.292800</EPOCH><MEAN_MOTION>14.35487000</MEAN_MOTION><ECCENTRICITY>.000457</ECCENTRICITY><INCLINATION>45.0293</INCLINATION><RA_OF_ASC_NODE>216.5115</RA_OF_ASC_NODE><ARG_OF_PERICENTER>168.4072</ARG_OF_PERICENTER><MEAN_ANOMALY>191.6882</MEAN_ANOMALY></meanElements><tleParameters><EPHEMERIS_TYPE>0</EPHEMERIS_TYPE><CLASSIFICATION_TYPE>U</CLASSIFICATION_TYPE><NORAD_CAT_ID>25980</NORAD_CAT_ID><ELEMENT_SET_NO>999</ELEMENT_SET_NO><REV_AT_EPOCH>28679</REV_AT_EPOCH><BSTAR>.72011E-3</BSTAR><MEAN_MOTION_DOT>.1949E-4</MEAN_MOTION_DOT><MEAN_MOTION_DDOT>0</MEAN_MOTION_DDOT></tleParameters></data></segment></body></omm>
<omm id="CCSDS_OMM_VERS" version="2.0">
<header><CREATION_DATE/><ORIGINATOR/></header><body><segment><metadata><OBJECT_NAME>ORBCOMM FM31</OBJECT_NAME><OBJECT_ID>1999-065B</OBJECT_ID><CENTER_NAME>EARTH</CENTER_NAME><REF_FRAME>TEME</REF_FRAME><TIME_SYSTEM>UTC</TIME_SYSTEM><MEAN_ELEMENT_THEORY>SGP4</MEAN_ELEMENT_THEORY></metadata><data><meanElements><EPOCH>2024-07-20T17:23:33.038880</EPOCH><MEAN_MOTION>14.35477926</MEAN_MOTION><ECCENTRICITY>.000312</ECCENTRICITY><INCLINATION>45.0207</INCLINATION><RA_OF_ASC_NODE>210.3163</RA_OF_ASC_NODE><ARG_OF_PERICENTER>215.5390</ARG_OF_PERICENTER><MEAN_ANOMALY>144.5249</MEAN_ANOMALY></meanElements><tleParameters><EPHEMERIS_TYPE>0</EPHEMERIS_TYPE><CLASSIFICATION_TYPE>U</CLASSIFICATION_TYPE><NORAD_CAT_ID>25981</NORAD_CAT_ID><ELEMENT_SET_NO>999</ELEMENT_SET_NO><REV_AT_EPOCH>28634</REV_AT_EPOCH><BSTAR>.73847E-3</BSTAR><MEAN_MOTION_DOT>.2002E-4</MEAN_MOTION_DOT><MEAN_MOTION_DDOT>0</MEAN_MOTION_DDOT></tleParameters></data></segment></body></omm>
<omm id="CCSDS_OMM_VERS" version="2.0">
<header><CREATION_DATE/><ORIGINATOR/></header><body><segment><metadata><OBJECT_NAME>ORBCOMM FM32</OBJECT_NAME><OBJECT_ID>1999-065C</OBJECT_ID><CENTER_NAME>EARTH</CENTER_NAME><REF_FRAME>TEME</REF_FRAME><TIME_SYSTEM>UTC</TIME_SYSTEM><MEAN_ELEMENT_THEORY>SGP4</MEAN_ELEMENT_THEORY></metadata><data><meanElements><EPOCH>2024-07-20T18:08:21.689376</EPOCH><MEAN_MOTION>14.34483312</MEAN_MOTION><ECCENTRICITY>.000529</ECCENTRICITY><INCLINATION>45.0149</INCLINATION><RA_OF_ASC_NODE>224.4796</RA_OF_ASC_NODE><ARG_OF_PERICENTER>199.8893</ARG_OF_PERICENTER><MEAN_ANOMALY>160.1749</MEAN_ANOMALY></meanElements><tleParameters><EPHEMERIS_TYPE>0</EPHEMERIS_TYPE><CLASSIFICATION_TYPE>U</CLASSIFICATION_TYPE><NORAD_CAT_ID>25982</NORAD_CAT_ID><ELEMENT_SET_NO>999</ELEMENT_SET_NO><REV_AT_EPOCH>28697</REV_AT_EPOCH><BSTAR>.71249E-3</BSTAR><MEAN_MOTION_DOT>.1886E-4</MEAN_MOTION_DOT><MEAN_MOTION_DDOT>0</MEAN_MOTION_DDOT></tleParameters></data></segment></body></omm>

</ndm>
