ORBCOMM FM24            
1 25478U 98053D   24202.87081338  .00002969  00000+0  10610-2 0  9994
2 25478  45.0090  37.7026 0000709  34.5301 325.5592 14.35974329349782
ORBCOMM FM25            
1 25479U 98053E   24202.90766798  .00003047  00000+0  10880-2 0  9996
2 25479  45.0082  35.7778 0003257  34.9984 325.1078 14.35959832350080
ORBCOMM FM26            
1 25480U 98053F   24202.87333787  .00002394  00000+0  87579-3 0  9996
2 25480  45.0078  30.3716 0005420  54.1947 305.9404 14.35356837350015
ORBCOMM FM27            
1 25481U 98053G   24202.89639085  .00002952  00000+0  10560-2 0  9994
2 25481  45.0064  36.0923 0000983 163.9180 196.1699 14.35946838350013
ORBCOMM FM28            
1 25482U 98053H   24202.79222274  .00002876  00000+0  10214-2 0  9993
2 25482  45.0069 334.8200 0002895 101.4287 258.6886 14.36361775350671
ORBCOMM FM30            
1 25980U 99065A   24202.75892700  .00001949  00000+0  72011-3 0  9997
2 25980  45.0293 216.5115 0004570 168.4072 191.6882 14.35487000286793
ORBCOMM FM31            
1 25981U 99065B   24202.72468795  .00002002  00000+0  73847-3 0  9997
2 25981  45.0207 210.3163 0003120 215.5390 144.5249 14.35477926286342
ORBCOMM FM32            
1 25982U 99065C   24202.75580659  .00001886  00000+0  71249-3 0  9998
2 25982  45.0149 224.4796 0005290 199.8893 160.1749 14.34483312286971
